start=new Date('2023-03-01T00:00:00.000Z').valueOf();
sats=[{"EPOCH":"2023-02-28T00:02:07.906560","COUNTRY_CODE":"US","OBJECT_ID":"2020-055BD","NORAD_CAT_ID":"46078","GP_ID":"227234224","OBJECT_TYPE":"PAYLOAD","SITE":"AFETR","PERIOD":"95.590","RA_OF_ASC_NODE":"20.2509","MEAN_ELEMENT_THEORY":"SGP4","REF_FRAME":"TEME","INCLINATION":"53.0568","REV_AT_EPOCH":"14262","DECAY_DATE":null,"OBJECT_NAME":"STARLINK-1563","TLE_LINE1":"1 46078U 20055BD  23059.00148040  .00014398  00000-0  98254-3 0  9999","TIME_SYSTEM":"UTC","MEAN_MOTION_DOT":"0.00014398","LAUNCH_DATE":"2020-08-07","SEMIMAJOR_AXIS":"6925.235","MEAN_MOTION":"15.06436924","ELEMENT_SET_NO":"999","TLE_LINE2":"2 46078  53.0568  20.2509 0001361 110.3868 249.7267 15.06436924142622","RCS_SIZE":"LARGE","CENTER_NAME":"EARTH","APOAPSIS":"548.043","MEAN_MOTION_DDOT":"0.0000000000000","ARG_OF_PERICENTER":"110.3868","PERIAPSIS":"546.158","CLASSIFICATION_TYPE":"U","ECCENTRICITY":"0.00013610","FILE":"3847542","MEAN_ANOMALY":"249.7267","BSTAR":"0.00098254000000","EPHEMERIS_TYPE":"0"},{"BSTAR":"0.00147480000000","EPHEMERIS_TYPE":"0","FILE":"3847542","MEAN_ANOMALY":"259.5864","ECCENTRICITY":"0.00016760","PERIAPSIS":"545.876","CLASSIFICATION_TYPE":"U","APOAPSIS":"548.197","MEAN_MOTION_DDOT":"0.0000000000000","ARG_OF_PERICENTER":"100.5313","RCS_SIZE":"LARGE","CENTER_NAME":"EARTH","ELEMENT_SET_NO":"999","TLE_LINE2":"2 46079  53.0552  19.0942 0001676 100.5313 259.5864 15.06457799142690","SEMIMAJOR_AXIS":"6925.171","MEAN_MOTION":"15.06457799","MEAN_MOTION_DOT":"0.00021788","TIME_SYSTEM":"UTC","LAUNCH_DATE":"2020-08-07","DECAY_DATE":null,"REV_AT_EPOCH":"14269","OBJECT_NAME":"STARLINK-1566","TLE_LINE1":"1 46079U 20055BE  23059.25948781  .00021788  00000-0  14748-2 0  9993","RA_OF_ASC_NODE":"19.0942","REF_FRAME":"TEME","MEAN_ELEMENT_THEORY":"SGP4","INCLINATION":"53.0552","OBJECT_TYPE":"PAYLOAD","GP_ID":"227235476","SITE":"AFETR","PERIOD":"95.588","COUNTRY_CODE":"US","OBJECT_ID":"2020-055BE","NORAD_CAT_ID":"46079","EPOCH":"2023-02-28T06:13:39.746784"},{"PERIAPSIS":"545.813","CLASSIFICATION_TYPE":"U","APOAPSIS":"548.241","MEAN_MOTION_DDOT":"0.0000000000000","ARG_OF_PERICENTER":"101.9284","CENTER_NAME":"EARTH","RCS_SIZE":"LARGE","BSTAR":"0.00159220000000","EPHEMERIS_TYPE":"0","FILE":"3847542","MEAN_ANOMALY":"258.1902","ECCENTRICITY":"0.00017530","RA_OF_ASC_NODE":"19.5640","MEAN_ELEMENT_THEORY":"SGP4","REF_FRAME":"TEME","INCLINATION":"53.0549","GP_ID":"227235226","OBJECT_TYPE":"PAYLOAD","SITE":"AFETR","PERIOD":"95.588","COUNTRY_CODE":"US","OBJECT_ID":"2020-055BF","NORAD_CAT_ID":"46080","EPOCH":"2023-02-28T03:38:22.598016","ELEMENT_SET_NO":"999","TLE_LINE2":"2 46080  53.0549  19.5640 0001753 101.9284 258.1902 15.06461011142652","SEMIMAJOR_AXIS":"6925.162","MEAN_MOTION":"15.06461011","MEAN_MOTION_DOT":"0.00023553","TIME_SYSTEM":"UTC","LAUNCH_DATE":"2020-08-07","OBJECT_NAME":"STARLINK-1568","DECAY_DATE":null,"REV_AT_EPOCH":"14265","TLE_LINE1":"1 46080U 20055BF  23059.15165044  .00023553  00000-0  15922-2 0  9994"},{"EPOCH":"2023-02-28T07:38:34.813536","NORAD_CAT_ID":"46081","OBJECT_ID":"2020-055BG","COUNTRY_CODE":"US","PERIOD":"95.586","SITE":"AFETR","OBJECT_TYPE":"PAYLOAD","GP_ID":"227234474","INCLINATION":"53.0557","REF_FRAME":"TEME","MEAN_ELEMENT_THEORY":"SGP4","RA_OF_ASC_NODE":"18.8189","TLE_LINE1":"1 46081U 20055BG  23059.31845849  .00036634  00000-0  24595-2 0  9991","DECAY_DATE":null,"REV_AT_EPOCH":"14269","OBJECT_NAME":"STARLINK-1571","LAUNCH_DATE":"2020-08-07","MEAN_MOTION_DOT":"0.00036634","TIME_SYSTEM":"UTC","MEAN_MOTION":"15.06490946","SEMIMAJOR_AXIS":"6925.070","TLE_LINE2":"2 46081  53.0557  18.8189 0001590  89.9451 270.1720 15.06490946142697","ELEMENT_SET_NO":"999","CENTER_NAME":"EARTH","RCS_SIZE":"LARGE","ARG_OF_PERICENTER":"89.9451","MEAN_MOTION_DDOT":"0.0000000000000","APOAPSIS":"548.036","CLASSIFICATION_TYPE":"U","PERIAPSIS":"545.834","ECCENTRICITY":"0.00015900","MEAN_ANOMALY":"270.1720","FILE":"3847542","EPHEMERIS_TYPE":"0","BSTAR":"0.00245950000000"},{"BSTAR":"0.00119900000000","EPHEMERIS_TYPE":"0","ECCENTRICITY":"0.00010570","FILE":"3847542","MEAN_ANOMALY":"247.5088","APOAPSIS":"547.807","ARG_OF_PERICENTER":"112.6013","MEAN_MOTION_DDOT":"0.0000000000000","PERIAPSIS":"546.343","CLASSIFICATION_TYPE":"U","CENTER_NAME":"EARTH","RCS_SIZE":"LARGE","SEMIMAJOR_AXIS":"6925.210","MEAN_MOTION":"15.06445190","ELEMENT_SET_NO":"999","TLE_LINE2":"2 46082  53.0542  19.6158 0001057 112.6013 247.5088 15.06445190142677","DECAY_DATE":null,"REV_AT_EPOCH":"14267","OBJECT_NAME":"STARLINK-1578","TLE_LINE1":"1 46082U 20055BH  23059.14154286  .00017644  00000-0  11990-2 0  9996","LAUNCH_DATE":"2020-08-07","MEAN_MOTION_DOT":"0.00017644","TIME_SYSTEM":"UTC","OBJECT_TYPE":"PAYLOAD","GP_ID":"227234725","PERIOD":"95.589","SITE":"AFETR","RA_OF_ASC_NODE":"19.6158","INCLINATION":"53.0542","MEAN_ELEMENT_THEORY":"SGP4","REF_FRAME":"TEME","EPOCH":"2023-02-28T03:23:49.303104","OBJECT_ID":"2020-055BH","COUNTRY_CODE":"US","NORAD_CAT_ID":"46082"},{"LAUNCH_DATE":"2020-08-07","MEAN_MOTION_DOT":"0.00019188","TIME_SYSTEM":"UTC","TLE_LINE1":"1 46083U 20055BJ  23059.24474217  .00019188  00000-0  13014-2 0  9991","OBJECT_NAME":"STARLINK-1579","DECAY_DATE":null,"REV_AT_EPOCH":"14268","TLE_LINE2":"2 46083  53.0550  19.1484 0001405  89.9136 270.2014 15.06460571142686","ELEMENT_SET_NO":"999","MEAN_MOTION":"15.06460571","SEMIMAJOR_AXIS":"6925.163","NORAD_CAT_ID":"46083","OBJECT_ID":"2020-055BJ","COUNTRY_CODE":"US","EPOCH":"2023-02-28T05:52:25.723488","INCLINATION":"53.0550","REF_FRAME":"TEME","MEAN_ELEMENT_THEORY":"SGP4","RA_OF_ASC_NODE":"19.1484","PERIOD":"95.588","SITE":"AFETR","GP_ID":"227234976","OBJECT_TYPE":"PAYLOAD","MEAN_ANOMALY":"270.2014","FILE":"3847542","ECCENTRICITY":"0.00014050","EPHEMERIS_TYPE":"0","BSTAR":"0.00130140000000","RCS_SIZE":"LARGE","CENTER_NAME":"EARTH","CLASSIFICATION_TYPE":"U","PERIAPSIS":"546.055","ARG_OF_PERICENTER":"89.9136","MEAN_MOTION_DDOT":"0.0000000000000","APOAPSIS":"548.001"},{"INCLINATION":"53.0518","MEAN_ELEMENT_THEORY":"SGP4","REF_FRAME":"TEME","RA_OF_ASC_NODE":"216.9201","PERIOD":"95.596","SITE":"AFETR","GP_ID":"227263361","OBJECT_TYPE":"PAYLOAD","NORAD_CAT_ID":"46117","OBJECT_ID":"2020-057A","COUNTRY_CODE":"US","EPOCH":"2023-02-28T17:49:00.215040","TLE_LINE2":"2 46117  53.0518 216.9201 0001383  62.0096 298.1033 15.06339180139805","ELEMENT_SET_NO":"999","MEAN_MOTION":"15.06339180","SEMIMAJOR_AXIS":"6925.535","LAUNCH_DATE":"2020-08-18","TIME_SYSTEM":"UTC","MEAN_MOTION_DOT":"0.00021053","TLE_LINE1":"1 46117U 20057A   23059.74236360  .00021053  00000-0  14304-2 0  9998","OBJECT_NAME":"STARLINK-1585","DECAY_DATE":null,"REV_AT_EPOCH":"13980","CLASSIFICATION_TYPE":"U","PERIAPSIS":"546.442","ARG_OF_PERICENTER":"62.0096","MEAN_MOTION_DDOT":"0.0000000000000","APOAPSIS":"548.358","CENTER_NAME":"EARTH","RCS_SIZE":"LARGE","EPHEMERIS_TYPE":"0","BSTAR":"0.00143040000000","MEAN_ANOMALY":"298.1033","FILE":"3847656","ECCENTRICITY":"0.00013830"},{"TLE_LINE2":"2 46118  53.0537 236.8749 0001141  93.2488 266.8632 15.06399371140805","ELEMENT_SET_NO":"999","MEAN_MOTION":"15.06399371","SEMIMAJOR_AXIS":"6925.350","TIME_SYSTEM":"UTC","MEAN_MOTION_DOT":"0.00000326","LAUNCH_DATE":"2020-08-18","TLE_LINE1":"1 46118U 20057B   23059.75158519  .00000326  00000-0  40752-4 0  9997","DECAY_DATE":null,"REV_AT_EPOCH":"14080","OBJECT_NAME":"STARLINK-1588","MEAN_ELEMENT_THEORY":"SGP4","REF_FRAME":"TEME","INCLINATION":"53.0537","RA_OF_ASC_NODE":"236.8749","SITE":"AFETR","PERIOD":"95.592","OBJECT_TYPE":"PAYLOAD","GP_ID":"227264612","NORAD_CAT_ID":"46118","COUNTRY_CODE":"US","OBJECT_ID":"2020-057B","EPOCH":"2023-02-28T18:02:16.960416","EPHEMERIS_TYPE":"0","BSTAR":"0.00004075200000","MEAN_ANOMALY":"266.8632","FILE":"3847656","ECCENTRICITY":"0.00011410","CLASSIFICATION_TYPE":"U","PERIAPSIS":"546.425","MEAN_MOTION_DDOT":"0.0000000000000","ARG_OF_PERICENTER":"93.2488","APOAPSIS":"548.006","CENTER_NAME":"EARTH","RCS_SIZE":"LARGE"},{"ELEMENT_SET_NO":"999","TLE_LINE2":"2 46119  53.0543 236.6263 0001291  90.3436 269.7701 15.06409521140795","SEMIMAJOR_AXIS":"6925.319","MEAN_MOTION":"15.06409521","TIME_SYSTEM":"UTC","MEAN_MOTION_DOT":"0.00005629","LAUNCH_DATE":"2020-08-18","REV_AT_EPOCH":"14079","DECAY_DATE":null,"OBJECT_NAME":"STARLINK-1593","TLE_LINE1":"1 46119U 20057C   23059.80687422  .00005629  00000-0  39640-3 0  9998","RA_OF_ASC_NODE":"236.6263","REF_FRAME":"TEME","MEAN_ELEMENT_THEORY":"SGP4","INCLINATION":"53.0543","OBJECT_TYPE":"PAYLOAD","GP_ID":"227264363","SITE":"AFETR","PERIOD":"95.592","COUNTRY_CODE":"US","OBJECT_ID":"2020-057C","NORAD_CAT_ID":"46119","EPOCH":"2023-02-28T19:21:53.932608","BSTAR":"0.00039640000000","EPHEMERIS_TYPE":"0","FILE":"3847656","MEAN_ANOMALY":"269.7701","ECCENTRICITY":"0.00012910","PERIAPSIS":"546.290","CLASSIFICATION_TYPE":"U","APOAPSIS":"548.078","MEAN_MOTION_DDOT":"0.0000000000000","ARG_OF_PERICENTER":"90.3436","RCS_SIZE":"LARGE","CENTER_NAME":"EARTH"},{"APOAPSIS":"548.042","ARG_OF_PERICENTER":"107.3400","MEAN_MOTION_DDOT":"0.0000000000000","PERIAPSIS":"546.609","CLASSIFICATION_TYPE":"U","RCS_SIZE":"LARGE","CENTER_NAME":"EARTH","BSTAR":"0.00086875000000","EPHEMERIS_TYPE":"0","ECCENTRICITY":"0.00010350","FILE":"3847656","MEAN_ANOMALY":"252.7702","OBJECT_TYPE":"PAYLOAD","GP_ID":"227263611","PERIOD":"95.594","SITE":"AFETR","RA_OF_ASC_NODE":"236.4000","INCLINATION":"53.0509","MEAN_ELEMENT_THEORY":"SGP4","REF_FRAME":"TEME","EPOCH":"2023-02-28T20:36:11.983392","OBJECT_ID":"2020-057D","COUNTRY_CODE":"US","NORAD_CAT_ID":"46120","SEMIMAJOR_AXIS":"6925.460","MEAN_MOTION":"15.06363517","ELEMENT_SET_NO":"999","TLE_LINE2":"2 46120  53.0509 236.4000 0001035 107.3400 252.7702 15.06363517140823","OBJECT_NAME":"STARLINK-1601","DECAY_DATE":null,"REV_AT_EPOCH":"14082","TLE_LINE1":"1 46120U 20057D   23059.85847203  .00012669  00000-0  86875-3 0  9994","LAUNCH_DATE":"2020-08-18","TIME_SYSTEM":"UTC","MEAN_MOTION_DOT":"0.00012669"}];
